JCSAT-15                
1 41903U 16082A   18135.04775822 -.00000350  00000-0  00000-0 0  9996
2 41903   0.0203 277.9862 0001288 339.5994 102.4158  1.00271745  5155
STAR ONE D1             
1 41904U 16082B   18135.58555145 -.00000210  00000-0  00000-0 0  9995
2 41904   0.0583  98.1406 0002120 327.9074 293.9895  1.00270258  5141
TJS-2                   
1 41911U 17001A   18135.35325119 -.00000341  00000-0  00000+0 0  9990
2 41911   0.0279 134.1598 0000722 340.9191 352.6351  1.00268144  5102
HISPASAT 36W-1          
1 41942U 17006A   18135.45254312 -.00000244  00000-0  00000-0 0  9999
2 41942   0.0068 262.8132 0001085 156.4125 300.7850  1.00270339  4617
TELKOM 3S               
1 41944U 17007A   18135.02586002 -.00000362  00000-0  00000-0 0  9990
2 41944   0.0132 282.8684 0002090 126.8728 310.2930  1.00271724  4515
INTELSAT 32E (IS-32E)   
1 41945U 17007B   18135.47231814 -.00000268  00000-0  00000-0 0  9993
2 41945   0.0165 297.7515 0000469   2.2778  59.9661  1.00268790  4618
ECHOSTAR 23             
1 42070U 17014A   18135.47714691 -.00000273  00000-0  00000-0 0  9996
2 42070   0.0207 285.6133 0001947 125.3324 309.0717  1.00270008  4316
SES-10                  
1 42432U 17017A   18135.53811744 -.00000272  00000-0  00000+0 0  9993
2 42432   0.0128 322.3370 0002713  97.7592 299.9463  1.00271133  4150
CHINASAT 16 (SJ-13)     
1 42662U 17018A   18135.04649655 -.00000351  00000-0  00000+0 0  9993
2 42662   0.0571  96.4985 0003939 141.0740 122.4050  1.00273096  4115
KOREASAT 7              
1 42691U 17023A   18136.02899076 -.00000362  00000-0  00000+0 0  9996
2 42691   0.0147  31.7987 0001465  18.4190 309.8100  1.00271124  3822
SGDC                    
1 42692U 17023B   18135.56010442 -.00000249  00000-0  00000-0 0  9992
2 42692   0.0420  81.9515 0002023 326.4612 311.6201  1.00270993  3818
GSAT-9                  
1 42695U 17024A   18136.08078929 -.00000286  00000-0  00000+0 0  9998
2 42695   0.0864 274.9067 0004689 133.0610 312.0874  1.00272696  3812
INMARSAT 5-F4           
1 42698U 17025A   18135.19623352  .00000076  00000-0  00000+0 0  9995
2 42698   0.0050  49.5038 0000165 354.9967 315.5165  1.00271289  3649
SES-15                  
1 42709U 17026A   18135.71049365  .00000060  00000-0  00000-0 0  9997
2 42709   0.0132 286.2361 0000287  85.2777 348.4869  1.00269760  4525
VIASAT-2                
1 42740U 17029A   18135.54632785 -.00000264  00000-0  00000-0 0  9997
2 42740   0.0492  98.6162 0000272 141.6066 119.7898  1.00269020  3579
EUTELSAT 172B           
1 42741U 17029B   18135.87352906 -.00000006  00000-0  00000+0 0  9991
2 42741   0.0131 303.2602 0000272 317.2858  99.4659  1.00270580  4083
GSAT-19                 
1 42747U 17031A   18136.21764726  .00000124  00000-0  00000+0 0  9996
2 42747   0.0497 281.4676 0006538 130.3076 308.2985  1.00273992  3519
ECHOSTAR 21             
1 42749U 17032A   18135.20629839  .00000056  00000-0  00000-0 0  9997
2 42749   6.9355 317.5185 0002266  75.1507 284.7611  1.00274906  3480
CHINASAT 9A (ZX 9A)     
1 42763U 17035A   18136.59657275 -.00000315  00000-0  00000+0 0  9992
2 42763   0.0751 104.0609 0003827 332.6924 113.6981  1.00272360  4033
BULGARIASAT-1           
1 42801U 17038A   18135.34758185  .00000012  00000-0  00000+0 0  9995
2 42801   0.0471 103.5987 0002720 308.5122 307.9294  1.00271991  3281
HELLAS-SAT 3            
1 42814U 17040A   18135.24480346  .00000153  00000-0  00000-0 0  9999
2 42814   0.0670  51.1653 0004748 347.8348 321.0499  1.00270787  3277
GSAT-17                 
1 42815U 17040B   18135.09354267 -.00000257  00000-0  00000+0 0  9990
2 42815   0.0201 279.6835 0003955  39.6129  40.6900  1.00273180  3247
INTELSAT 35E (IS-35E)   
1 42818U 17041A   18136.44555220 -.00000239  00000-0  00000+0 0  9996
2 42818   0.0103 256.1060 0001610 153.6332 310.2890  1.00271686  3221
COSMOS 2520             
1 42907U 17046A   18135.82166980  .00000137  00000-0  00000+0 0  9998
2 42907   0.0014 311.5757 0002093 231.1090  31.6233  1.00272411  2769
TDRS 13                 
1 42915U 17047A   18135.68871311  .00000114  00000-0  00000-0 0  9999
2 42915   6.6832 331.5910 0010731   5.7915 354.0960  1.00277899  2720
QZS-3                   
1 42917U 17048A   18135.00089591 -.00000347  00000-0  00000-0 0  9998
2 42917   0.0468 216.5567 0000685 117.8642  25.5916  1.00275641  2638
AMAZONAS 5              
1 42934U 17053A   18135.52171972 -.00000282  00000-0  00000-0 0  9993
2 42934   0.0290 316.2060 0003674  58.0373 345.7828  1.00270404  2488
ASIASAT 9               
1 42942U 17057A   18136.33644563 -.00000361  00000-0  00000+0 0  9994
2 42942   0.0104  82.9239 0002001 339.8946  54.4267  1.00270634  2324
INTELSAT 37E (IS-37E)   
1 42950U 17059A   18136.39992485 -.00000142  00000-0  00000+0 0  9997
2 42950   0.0185 299.9728 0001731 132.7180 287.3424  1.00271017  2434
BSAT-4A                 
1 42951U 17059B   18135.04852227 -.00000349  00000-0  00000+0 0  9997
2 42951   0.0699  57.0340 0004724 351.0955 311.9267  1.00271865  2327
SES-11 (ECHOSTAR 105)   
1 42967U 17063A   18135.64347031 -.00000089  00000-0  00000-0 0  9999
2 42967   0.0133 269.3748 0002127 139.1886 311.4703  1.00271599  2188
KOREASAT 5A             
1 42984U 17067A   18135.03928470 -.00000357  00000-0  00000+0 0  9994
2 42984   0.0195 270.6138 0001408 121.5621 327.8486  1.00271771  2008
ALCOMSAT 1              
1 43039U 17078A   18136.41879240 -.00000188  00000-0  00000+0 0  9993
2 43039   0.0073 315.2208 0003159 100.3109 304.5124  1.00270016  1685
